{"type": "FeatureCollection", "features": [ {"type": "Feature", "properties": {"norad_id": 66545, "name": "SHIJIAN-30A", "group": "last-30-days", "lat": 27.047499896084204, "lon": -23.312523799693025, "alt_km": 507.8228929493798, "timestamp": "2025-12-16T23:36:34.922529+00:00", "meta": {"OBJECT_NAME": "SHIJIAN-30A", "OBJECT_ID": "2025-266A", "EPOCH": "2025-12-16T15:32:30.281280", "MEAN_MOTION": 15.15538105, "ECCENTRICITY": 0.0012987, "INCLINATION": 51.7988, "RA_OF_ASC_NODE": 314.5549, "ARG_OF_PERICENTER": 10.384, "MEAN_ANOMALY": 349.7403, "EPHEMERIS_TYPE": 0, "CLASSIFICATION_TYPE": "U", "NORAD_CAT_ID": 66545, "ELEMENT_SET_NO": 999, "REV_AT_EPOCH": 417, "BSTAR": 0.00052479, "MEAN_MOTION_DOT": 9.795e-05, "MEAN_MOTION_DDOT": 0}, "tle": {"line1": "1 66545U 25266A   25350.64757270  .00009795  00000+0  52479-3 0  9999", "line2": "2 66545  51.7988 314.5549 0012987  10.3840 349.7403 15.15538105  4176"}}, "geometry": {"type": "Point", "coordinates": [-23.312523799693025, 27.047499896084204]}}, {"type": "Feature", "properties": {"norad_id": 66546, "name": "SHIJIAN-30B", "group": "last-30-days", "lat": 22.17497881497825, "lon": -28.28846946997114, "alt_km": 509.6991379591527, "timestamp": "2025-12-16T23:36:34.922540+00:00", "meta": {"OBJECT_NAME": "SHIJIAN-30B", "OBJECT_ID": "2025-266B", "EPOCH": "2025-12-16T12:24:19.701216", "MEAN_MOTION": 15.15512378, "ECCENTRICITY": 0.0010703, "INCLINATION": 51.7971, "RA_OF_ASC_NODE": 315.1764, "ARG_OF_PERICENTER": 13.2697, "MEAN_ANOMALY": 346.8559, "EPHEMERIS_TYPE": 0, "CLASSIFICATION_TYPE": "U", "NORAD_CAT_ID": 66546, "ELEMENT_SET_NO": 999, "REV_AT_EPOCH": 415, "BSTAR": 0.00056654, "MEAN_MOTION_DOT": 0.00010587, "MEAN_MOTION_DDOT": 0}, "tle": {"line1": "1 66546U 25266B   25350.51689469  .00010587  00000+0  56654-3 0  9990", "line2": "2 66546  51.7971 315.1764 0010703  13.2697 346.8559 15.15512378  4153"}}, "geometry": {"type": "Point", "coordinates": [-28.28846946997114, 22.17497881497825]}}, {"type": "Feature", "properties": {"norad_id": 66547, "name": "SHIJIAN-30C", "group": "last-30-days", "lat": 19.917842882270673, "lon": -30.42285364456326, "alt_km": 509.84986777382437, "timestamp": "2025-12-16T23:36:34.922551+00:00", "meta": {"OBJECT_NAME": "SHIJIAN-30C", "OBJECT_ID": "2025-266C", "EPOCH": "2025-12-16T15:35:01.178016", "MEAN_MOTION": 15.15460447, "ECCENTRICITY": 0.0011576, "INCLINATION": 51.7982, "RA_OF_ASC_NODE": 314.5641, "ARG_OF_PERICENTER": 5.4373, "MEAN_ANOMALY": 354.6727, "EPHEMERIS_TYPE": 0, "CLASSIFICATION_TYPE": "U", "NORAD_CAT_ID": 66547, "ELEMENT_SET_NO": 999, "REV_AT_EPOCH": 417, "BSTAR": 0.00053164, "MEAN_MOTION_DOT": 9.902e-05, "MEAN_MOTION_DDOT": 0}, "tle": {"line1": "1 66547U 25266C   25350.64931919  .00009902  00000+0  53164-3 0  9997", "line2": "2 66547  51.7982 314.5641 0011576   5.4373 354.6727 15.15460447  4171"}}, "geometry": {"type": "Point", "coordinates": [-30.42285364456326, 19.917842882270673]}}, {"type": "Feature", "properties": {"norad_id": 66548, "name": "CZ-2C R/B", "group": "last-30-days", "lat": 26.582541433525385, "lon": -25.95964534880714, "alt_km": 522.8629523008667, "timestamp": "2025-12-16T23:36:34.922562+00:00", "meta": {"OBJECT_NAME": "CZ-2C R/B", "OBJECT_ID": "2025-266D", "EPOCH": "2025-12-16T07:46:59.273760", "MEAN_MOTION": 15.30255148, "ECCENTRICITY": 0.00837621, "INCLINATION": 52.0545, "RA_OF_ASC_NODE": 314.2012, "ARG_OF_PERICENTER": 185.4346, "MEAN_ANOMALY": 174.574, "EPHEMERIS_TYPE": 0, "CLASSIFICATION_TYPE": "U", "NORAD_CAT_ID": 66548, "ELEMENT_SET_NO": 999, "REV_AT_EPOCH": 416, "BSTAR": 0.00027930663, "MEAN_MOTION_DOT": 8.836e-05, "MEAN_MOTION_DDOT": 0}, "tle": {"line1": "1 66548U 25266D   25350.32429715  .00008836  00000+0  27931-3 0  9997", "line2": "2 66548  52.0545 314.2012 0083762 185.4346 174.5740 15.30255148  4165"}}, "geometry": {"type": "Point", "coordinates": [-25.95964534880714, 26.582541433525385]}}, {"type": "Feature", "properties": {"norad_id": 66549, "name": "SHIJIAN-28", "group": "last-30-days", "lat": -4.918022752840948, "lon": -163.1155972129975, "alt_km": 35790.52634702299, "timestamp": "2025-12-16T23:36:34.922579+00:00", "meta": {"OBJECT_NAME": "SHIJIAN-28", "OBJECT_ID": "2025-277A", "EPOCH": "2025-12-16T17:25:21.557280", "MEAN_MOTION": 1.00270392, "ECCENTRICITY": 9.64e-05, "INCLINATION": 5.0087, "RA_OF_ASC_NODE": 274.8943, "ARG_OF_PERICENTER": 136.0381, "MEAN_ANOMALY": 52.8688, "EPHEMERIS_TYPE": 0, "CLASSIFICATION_TYPE": "U", "NORAD_CAT_ID": 66549, "ELEMENT_SET_NO": 999, "REV_AT_EPOCH": 32, "BSTAR": 0, "MEAN_MOTION_DOT": -3.31e-06, "MEAN_MOTION_DDOT": 0}, "tle": {"line1": "1 66549U 25277A   25350.72594395 -.00000331  00000+0  00000+0 0  9998", "line2": "2 66549   5.0087 274.8943 0000964 136.0381  52.8688  1.00270392   326"}}, "geometry": {"type": "Point", "coordinates": [-163.1155972129975, -4.918022752840948]}}, {"type": "Feature", "properties": {"norad_id": 66550, "name": "CZ-7A R/B", "group": "last-30-days", "lat": 1.911775659811112, "lon": -84.85188692675415, "alt_km": 28791.913789922753, "timestamp": "2025-12-16T23:36:34.922593+00:00", "meta": {"OBJECT_NAME": "CZ-7A R/B", "OBJECT_ID": "2025-277B", "EPOCH": "2025-12-12T23:59:46.063680", "MEAN_MOTION": 2.69999213, "ECCENTRICITY": 0.70164962, "INCLINATION": 14.3833, "RA_OF_ASC_NODE": 269.7494, "ARG_OF_PERICENTER": 189.2871, "MEAN_ANOMALY": 143.2042, "EPHEMERIS_TYPE": 0, "CLASSIFICATION_TYPE": "U", "NORAD_CAT_ID": 66550, "ELEMENT_SET_NO": 999, "REV_AT_EPOCH": 35, "BSTAR": 0.0022608485, "MEAN_MOTION_DOT": 0.01807848, "MEAN_MOTION_DDOT": -2.55676e-07}, "tle": {"line1": "1 66550U 25277B   25346.99983870  .01807848 -25568-6  22608-2 0  9997", "line2": "2 66550  14.3833 269.7494 7016496 189.2871 143.2042  2.69999213   350"}}, "geometry": {"type": "Point", "coordinates": [-84.85188692675415, 1.911775659811112]}}, {"type": "Feature", "properties": {"norad_id": 66554, "name": "GLOBAL-33", "group": "last-30-days", "lat": 42.001137252017834, "lon": 122.08661345456012, "alt_km": 461.6049045434529, "timestamp": "2025-12-16T23:36:34.922612+00:00", "meta": {"OBJECT_NAME": "GLOBAL-33", "OBJECT_ID": "2025-267A", "EPOCH": "2025-12-16T06:00:18.289152", "MEAN_MOTION": 15.31623856, "ECCENTRICITY": 0.00037572, "INCLINATION": 42.0219, "RA_OF_ASC_NODE": 36.7279, "ARG_OF_PERICENTER": 92.6131, "MEAN_ANOMALY": 267.5137, "EPHEMERIS_TYPE": 0, "CLASSIFICATION_TYPE": "U", "NORAD_CAT_ID": 66554, "ELEMENT_SET_NO": 999, "REV_AT_EPOCH": 394, "BSTAR": 0.00030439527, "MEAN_MOTION_DOT": 9.257e-05, "MEAN_MOTION_DDOT": 0}, "tle": {"line1": "1 66554U 25267A   25350.25021168  .00009257  00000+0  30440-3 0  9994", "line2": "2 66554  42.0219  36.7279 0003757  92.6131 267.5137 15.31623856  3941"}}, "geometry": {"type": "Point", "coordinates": [122.08661345456012, 42.001137252017834]}}, {"type": "Feature", "properties": {"norad_id": 66555, "name": "ELECTRON KICK STAGE R/B", "group": "last-30-days", "lat": 3.096531914507908, "lon": -151.1609299719181, "alt_km": 465.9535925794826, "timestamp": "2025-12-16T23:36:34.922623+00:00", "meta": {"OBJECT_NAME": "ELECTRON KICK STAGE R/B", "OBJECT_ID": "2025-267B", "EPOCH": "2025-12-16T07:12:47.589984", "MEAN_MOTION": 15.32987846, "ECCENTRICITY": 0.00065987, "INCLINATION": 42.02, "RA_OF_ASC_NODE": 36.2375, "ARG_OF_PERICENTER": 82.1172, "MEAN_ANOMALY": 278.0415, "EPHEMERIS_TYPE": 0, "CLASSIFICATION_TYPE": "U", "NORAD_CAT_ID": 66555, "ELEMENT_SET_NO": 999, "REV_AT_EPOCH": 395, "BSTAR": 0.00060963873, "MEAN_MOTION_DOT": 0.0001966, "MEAN_MOTION_DDOT": 0}, "tle": {"line1": "1 66555U 25267B   25350.30055081  .00019660  00000+0  60964-3 0  9995", "line2": "2 66555  42.0200  36.2375 0006598  82.1172 278.0415 15.32987846  3959"}}, "geometry": {"type": "Point", "coordinates": [-151.1609299719181, 3.096531914507908]}}, {"type": "Feature", "properties": {"norad_id": 66557, "name": "STARLINK-35699", "group": "last-30-days", "lat": 35.08581013885812, "lon": 145.2988919455996, "alt_km": 409.81147891560704, "timestamp": "2025-12-16T23:36:34.922634+00:00", "meta": {"OBJECT_NAME": "STARLINK-35699", "OBJECT_ID": "2025-268A", "EPOCH": "2025-12-16T07:54:14.463648", "MEAN_MOTION": 15.50609379, "ECCENTRICITY": 0.00015494, "INCLINATION": 43.0002, "RA_OF_ASC_NODE": 100.2063, "ARG_OF_PERICENTER": 289.8311, "MEAN_ANOMALY": 70.2382, "EPHEMERIS_TYPE": 0, "CLASSIFICATION_TYPE": "U", "NORAD_CAT_ID": 66557, "ELEMENT_SET_NO": 999, "REV_AT_EPOCH": 518, "BSTAR": 0.0005216219, "MEAN_MOTION_DOT": 0.00030411, "MEAN_MOTION_DDOT": 0}, "tle": {"line1": "1 66557U 25268A   25350.32933407  .00030411  00000+0  52162-3 0  9995", "line2": "2 66557  43.0002 100.2063 0001549 289.8311  70.2382 15.50609379  5184"}}, "geometry": {"type": "Point", "coordinates": [145.2988919455996, 35.08581013885812]}}, {"type": "Feature", "properties": {"norad_id": 66558, "name": "STARLINK-35695", "group": "last-30-days", "lat": 35.960666928600155, "lon": 147.50822104428988, "alt_km": 409.93305579370826, "timestamp": "2025-12-16T23:36:34.922647+00:00", "meta": {"OBJECT_NAME": "STARLINK-35695", "OBJECT_ID": "2025-268B", "EPOCH": "2025-12-16T07:53:44.815488", "MEAN_MOTION": 15.50621842, "ECCENTRICITY": 0.00022726, "INCLINATION": 42.9976, "RA_OF_ASC_NODE": 100.2052, "ARG_OF_PERICENTER": 283.9242, "MEAN_ANOMALY": 76.1365, "EPHEMERIS_TYPE": 0, "CLASSIFICATION_TYPE": "U", "NORAD_CAT_ID": 66558, "ELEMENT_SET_NO": 999, "REV_AT_EPOCH": 518, "BSTAR": 0.0011330079, "MEAN_MOTION_DOT": 0.00066801, "MEAN_MOTION_DDOT": 0}, "tle": {"line1": "1 66558U 25268B   25350.32899092  .00066801  00000+0  11330-2 0  9990", "line2": "2 66558  42.9976 100.2052 0002272 283.9242  76.1365 15.50621842  5188"}}, "geometry": {"type": "Point", "coordinates": [147.50822104428988, 35.960666928600155]}}]}